{
  "Abbott, Gerlach and Price": {
    "Address Line 1": "80013 Jamey Village Suite 569", 
    "Address Line 2": "Apt. 823", 
    "City": "North Averyland", 
    "Company Description": "transform ubiquitous vortals", 
    "Company Website": "aufderhar.com", 
    "Phone": "02622671430", 
    "State": "Kansas", 
    "Zipcode": "94802"
  }, 
  "Abshire Group": {
    "Address Line 1": "60671 Stark Valleys Suite 982", 
    "Address Line 2": "Suite 498", 
    "City": "North Elza", 
    "Company Description": "synergize dot-com initiatives", 
    "Company Website": "cruickshank.com", 
    "Phone": "(887)439-0607", 
    "State": "Pennsylvania", 
    "Zipcode": "11602"
  }, 
  "Anderson-McGlynn": {
    "Address Line 1": "9265 Samantha Creek Suite 845", 
    "Address Line 2": "Apt. 024", 
    "City": "Huelton", 
    "Company Description": "drive turn-key models", 
    "Company Website": "skilesbradtke.com", 
    "Phone": "581-200-9983x71338", 
    "State": "Tennessee", 
    "Zipcode": "54550"
  }, 
  "Bahringer Inc": {
    "Address Line 1": "52118 Bailey Manor Suite 879", 
    "Address Line 2": "Apt. 362", 
    "City": "Port Sabastianfurt", 
    "Company Description": "re-intermediate turn-key schemas", 
    "Company Website": "rohan.biz", 
    "Phone": "195.574.4734", 
    "State": "Oregon", 
    "Zipcode": "01891"
  }, 
  "Bahringer-Schroeder": {
    "Address Line 1": "2328 Cormier Point Suite 737", 
    "Address Line 2": "Apt. 734", 
    "City": "West Mamehaven", 
    "Company Description": "deploy clicks-and-mortar schemas", 
    "Company Website": "frami.org", 
    "Phone": "06659376190", 
    "State": "Wisconsin", 
    "Zipcode": "37131"
  }, 
  "Bartoletti Group": {
    "Address Line 1": "752 Rodrick Circle", 
    "Address Line 2": "Suite 383", 
    "City": "Oneidaberg", 
    "Company Description": "harness e-business e-services", 
    "Company Website": "watsica.biz", 
    "Phone": "1-826-817-9015x5661", 
    "State": "Idaho", 
    "Zipcode": "51802"
  }, 
  "Beahan Ltd": {
    "Address Line 1": "79105 Ula Summit", 
    "Address Line 2": "Apt. 314", 
    "City": "Berthaview", 
    "Company Description": "utilize global solutions", 
    "Company Website": "stracke.info", 
    "Phone": "(677)640-6790x7566", 
    "State": "Nebraska", 
    "Zipcode": "84131"
  }, 
  "Bednar-Donnelly": {
    "Address Line 1": "565 Goldner Mission", 
    "Address Line 2": "Suite 525", 
    "City": "Port Sanaifort", 
    "Company Description": "transition robust infrastructures", 
    "Company Website": "sauer.com", 
    "Phone": "1-391-362-5801", 
    "State": "Tennessee", 
    "Zipcode": "69412"
  }, 
  "Beier, Welch and Rippin": {
    "Address Line 1": "454 Thresa Path Suite 607", 
    "Address Line 2": "Suite 913", 
    "City": "Welchbury", 
    "Company Description": "benchmark viral channels", 
    "Company Website": "gaylord.com", 
    "Phone": "372.885.8917x960", 
    "State": "Montana", 
    "Zipcode": "39820"
  }, 
  "Brakus Group": {
    "Address Line 1": "47392 Darin Mountains Apt. 224", 
    "Address Line 2": "Suite 060", 
    "City": "Port Hillery", 
    "Company Description": "strategize turn-key e-markets", 
    "Company Website": "jonesbeier.com", 
    "Phone": "577.181.2618x07734", 
    "State": "Kentucky", 
    "Zipcode": "60627"
  }, 
  "Braun, Volkman and Pouros": {
    "Address Line 1": "377 Murazik Throughway", 
    "Address Line 2": "Suite 222", 
    "City": "Adamsberg", 
    "Company Description": "leverage proactive communities", 
    "Company Website": "lakinjones.com", 
    "Phone": "+42(8)6035622847", 
    "State": "Pennsylvania", 
    "Zipcode": "53152"
  }, 
  "Casper-Sawayn": {
    "Address Line 1": "9845 Lotta Corners", 
    "Address Line 2": "Apt. 957", 
    "City": "Lake Gee", 
    "Company Description": "visualize value-added platforms", 
    "Company Website": "waltergottlieb.net", 
    "Phone": "+76(1)8035715781", 
    "State": "Utah", 
    "Zipcode": "19100"
  }, 
  "Douglas, Walsh and Luettgen": {
    "Address Line 1": "0630 Annalise Rue Apt. 686", 
    "Address Line 2": "Apt. 221", 
    "City": "Aleasebury", 
    "Company Description": "harness scalable interfaces", 
    "Company Website": "hettinger.com", 
    "Phone": "006-152-4393", 
    "State": "Mississippi", 
    "Zipcode": "39516"
  }, 
  "Durgan LLC": {
    "Address Line 1": "44839 Conn Corners Apt. 246", 
    "Address Line 2": "Apt. 880", 
    "City": "North Jonathanville", 
    "Company Description": "re-intermediate sticky methodologies", 
    "Company Website": "gutkowski.net", 
    "Phone": "393-511-6294x349", 
    "State": "Colorado", 
    "Zipcode": "21224"
  }, 
  "Emmerich, Cartwright and Larkin": {
    "Address Line 1": "113 Lindgren Points", 
    "Address Line 2": "Apt. 251", 
    "City": "Longhaven", 
    "Company Description": "e-enable interactive initiatives", 
    "Company Website": "mayerkuhlman.com", 
    "Phone": "113-748-3135x797", 
    "State": "NewMexico", 
    "Zipcode": "99352"
  }, 
  "Ernser-Tillman": {
    "Address Line 1": "365 Torp Ports", 
    "Address Line 2": "Apt. 207", 
    "City": "Legrostown", 
    "Company Description": "streamline compelling infrastructures", 
    "Company Website": "gottliebgrimes.com", 
    "Phone": "310-178-8745x58974", 
    "State": "Maine", 
    "Zipcode": "07661"
  }, 
  "Feest LLC": {
    "Address Line 1": "19835 Kovacek Common", 
    "Address Line 2": "Apt. 892", 
    "City": "Smithbury", 
    "Company Description": "repurpose distributed synergies", 
    "Company Website": "ondricka.info", 
    "Phone": "1-658-979-8003x25734", 
    "State": "Alaska", 
    "Zipcode": "70613"
  }, 
  "Feest PLC": {
    "Address Line 1": "667 Rath Brooks", 
    "Address Line 2": "Apt. 870", 
    "City": "Goodwinland", 
    "Company Description": "aggregate seamless solutions", 
    "Company Website": "beierfarrell.org", 
    "Phone": "695-320-0862x21752", 
    "State": "RhodeIsland", 
    "Zipcode": "48916"
  }, 
  "Frami, Jacobson and Jakubowski": {
    "Address Line 1": "9323 Terry Passage", 
    "Address Line 2": "Suite 071", 
    "City": "Port Hellenport", 
    "Company Description": "orchestrate efficient mindshare", 
    "Company Website": "toy.com", 
    "Phone": "1-697-917-1014", 
    "State": "Minnesota", 
    "Zipcode": "97266"
  }, 
  "Friesen-Johnston": {
    "Address Line 1": "78072 Oris Trafficway Apt. 377", 
    "Address Line 2": "Suite 510", 
    "City": "Russelborough", 
    "Company Description": "extend open-source experiences", 
    "Company Website": "mayer.org", 
    "Phone": "(804)701-0648", 
    "State": "Massachusetts", 
    "Zipcode": "07688"
  }, 
  "Goodwin LLC": {
    "Address Line 1": "221 Jasmine Keys Apt. 835", 
    "Address Line 2": "Suite 543", 
    "City": "Odaside", 
    "Company Description": "matrix global technologies", 
    "Company Website": "kshlerin.com", 
    "Phone": "1-646-498-8853x705", 
    "State": "Ohio", 
    "Zipcode": "63797"
  }, 
  "Gusikowski, O'Keefe and Mann": {
    "Address Line 1": "7319 Leonore Street Apt. 000", 
    "Address Line 2": "Apt. 496", 
    "City": "Jacobsonfort", 
    "Company Description": "re-intermediate innovative e-tailers", 
    "Company Website": "littel.info", 
    "Phone": "885-852-7982", 
    "State": "Kansas", 
    "Zipcode": "81984"
  }, 
  "Hagenes, Harvey and Lockman": {
    "Address Line 1": "28300 Becker Vista Apt. 279", 
    "Address Line 2": "Suite 714", 
    "City": "Port Dominiquemouth", 
    "Company Description": "innovate vertical action-items", 
    "Company Website": "wunschhodkiewicz.com", 
    "Phone": "1-594-586-5703", 
    "State": "Iowa", 
    "Zipcode": "62205"
  }, 
  "Hahn, Botsford and Brown": {
    "Address Line 1": "49209 Osinski Cliff", 
    "Address Line 2": "Apt. 199", 
    "City": "New Reinamouth", 
    "Company Description": "cultivate front-end portals", 
    "Company Website": "grimes.org", 
    "Phone": "1-609-327-9899x305", 
    "State": "Ohio", 
    "Zipcode": "32460"
  }, 
  "Hammes LLC": {
    "Address Line 1": "615 Kassulke Ports", 
    "Address Line 2": "Suite 218", 
    "City": "Port Blaine", 
    "Company Description": "utilize 24/7 web-readiness", 
    "Company Website": "schaefer.org", 
    "Phone": "284-465-6071x13463", 
    "State": "Maine", 
    "Zipcode": "91374"
  }, 
  "Hane and Sons": {
    "Address Line 1": "94068 Bergstrom Wells Suite 672", 
    "Address Line 2": "Apt. 903", 
    "City": "Lucettaview", 
    "Company Description": "expedite rich portals", 
    "Company Website": "schamberger.com", 
    "Phone": "(941)985-5361x99138", 
    "State": "Indiana", 
    "Zipcode": "11929"
  }, 
  "Hane, Wilkinson and Little": {
    "Address Line 1": "877 Purdy Extension", 
    "Address Line 2": "Apt. 247", 
    "City": "Tillmanberg", 
    "Company Description": "transform dot-com solutions", 
    "Company Website": "hayes.biz", 
    "Phone": "(300)350-7005x889", 
    "State": "Washington", 
    "Zipcode": "04291"
  }, 
  "Hansen, Orn and Bernier": {
    "Address Line 1": "059 Okuneva Manors Apt. 241", 
    "Address Line 2": "Apt. 289", 
    "City": "Port Fleming", 
    "Company Description": "integrate global networks", 
    "Company Website": "senger.com", 
    "Phone": "1-710-709-6740", 
    "State": "Iowa", 
    "Zipcode": "16324"
  }, 
  "Hansen-Bartell": {
    "Address Line 1": "72178 Jaskolski Crossroad", 
    "Address Line 2": "Suite 515", 
    "City": "South Alciebury", 
    "Company Description": "deploy B2C action-items", 
    "Company Website": "spencerfahey.net", 
    "Phone": "654-050-0737", 
    "State": "Iowa", 
    "Zipcode": "73917"
  }, 
  "Harber Group": {
    "Address Line 1": "73071 Lilah Gateway Suite 837", 
    "Address Line 2": "Apt. 057", 
    "City": "Maggiotown", 
    "Company Description": "incubate interactive niches", 
    "Company Website": "ankundingkonopelski.com", 
    "Phone": "778.696.7242x3692", 
    "State": "Kentucky", 
    "Zipcode": "54200"
  }, 
  "Hegmann-Marvin": {
    "Address Line 1": "858 Hermiston Place Apt. 103", 
    "Address Line 2": "Suite 928", 
    "City": "East Chelsi", 
    "Company Description": "harness vertical supply-chains", 
    "Company Website": "kerluke.com", 
    "Phone": "409.574.4323x0058", 
    "State": "Texas", 
    "Zipcode": "45705"
  }, 
  "Hermann-Hackett": {
    "Address Line 1": "369 Koch Stravenue", 
    "Address Line 2": "Suite 305", 
    "City": "New Evelenamouth", 
    "Company Description": "visualize global mindshare", 
    "Company Website": "swift.net", 
    "Phone": "286-399-3865", 
    "State": "Wisconsin", 
    "Zipcode": "12764"
  }, 
  "Hilpert Group": {
    "Address Line 1": "847 Valentine Crossroad", 
    "Address Line 2": "Apt. 861", 
    "City": "Port Cassie", 
    "Company Description": "cultivate extensible platforms", 
    "Company Website": "raynor.com", 
    "Phone": "406-177-6494x37732", 
    "State": "NorthDakota", 
    "Zipcode": "33971"
  }, 
  "Hintz LLC": {
    "Address Line 1": "35932 McKenzie Radial Apt. 773", 
    "Address Line 2": "Apt. 136", 
    "City": "New Anthonyhaven", 
    "Company Description": "evolve cross-platform vortals", 
    "Company Website": "hintz.com", 
    "Phone": "+11(1)2338482921", 
    "State": "Michigan", 
    "Zipcode": "32406"
  }, 
  "Homenick, Christiansen and Murray": {
    "Address Line 1": "840 Shanahan Flats", 
    "Address Line 2": "Apt. 321", 
    "City": "Lake Quinnfurt", 
    "Company Description": "synergize intuitive web services", 
    "Company Website": "okeefe.com", 
    "Phone": "560.287.9513x0248", 
    "State": "Wisconsin", 
    "Zipcode": "03328"
  }, 
  "Hudson-Mante": {
    "Address Line 1": "90071 Brooks Square", 
    "Address Line 2": "Apt. 967", 
    "City": "Lake Nortonmouth", 
    "Company Description": "enhance plug-and-play partnerships", 
    "Company Website": "botsfordstokes.com", 
    "Phone": "(774)278-7610x712", 
    "State": "SouthCarolina", 
    "Zipcode": "46594"
  }, 
  "Jaskolski, Koch and Feest": {
    "Address Line 1": "0695 Murray Row Suite 513", 
    "Address Line 2": "Apt. 061", 
    "City": "East Admiralview", 
    "Company Description": "cultivate dot-com portals", 
    "Company Website": "strosinbeahan.net", 
    "Phone": "(039)470-9539x48100", 
    "State": "Oregon", 
    "Zipcode": "37913"
  }, 
  "Jenkins-Christiansen": {
    "Address Line 1": "2222 Connelly Inlet", 
    "Address Line 2": "Suite 713", 
    "City": "East Kenziemouth", 
    "Company Description": "strategize impactful communities", 
    "Company Website": "walsh.com", 
    "Phone": "496.372.9735x6091", 
    "State": "Arizona", 
    "Zipcode": "69504"
  }, 
  "Keebler-Bahringer": {
    "Address Line 1": "32732 Keebler Shoals Apt. 501", 
    "Address Line 2": "Apt. 181", 
    "City": "New Marenhaven", 
    "Company Description": "innovate strategic functionalities", 
    "Company Website": "macejkovicmccullough.com", 
    "Phone": "00112321888", 
    "State": "Connecticut", 
    "Zipcode": "86388"
  }, 
  "Kertzmann-Becker": {
    "Address Line 1": "49012 Balistreri Islands Apt. 733", 
    "Address Line 2": "Suite 791", 
    "City": "West Caitlinchester", 
    "Company Description": "morph magnetic bandwidth", 
    "Company Website": "kunde.com", 
    "Phone": "614-441-1763x73612", 
    "State": "Alaska", 
    "Zipcode": "45892"
  }, 
  "Klocko Inc": {
    "Address Line 1": "321 O'Conner Skyway", 
    "Address Line 2": "Apt. 027", 
    "City": "Klockomouth", 
    "Company Description": "integrate compelling deliverables", 
    "Company Website": "hoppe.com", 
    "Phone": "456-118-4544x469", 
    "State": "Washington", 
    "Zipcode": "98997"
  }, 
  "Kuhic Inc": {
    "Address Line 1": "4895 Phoenix Common", 
    "Address Line 2": "Suite 967", 
    "City": "Runtestad", 
    "Company Description": "expedite virtual schemas", 
    "Company Website": "mclaughlin.com", 
    "Phone": "09566994263", 
    "State": "Illinois", 
    "Zipcode": "16735"
  }, 
  "Kulas Group": {
    "Address Line 1": "167 Ura Points", 
    "Address Line 2": "Apt. 590", 
    "City": "Roswellville", 
    "Company Description": "innovate 24/7 applications", 
    "Company Website": "emmerichboyer.com", 
    "Phone": "444-233-1521", 
    "State": "Texas", 
    "Zipcode": "60985"
  }, 
  "Kulas, White and Weimann": {
    "Address Line 1": "00827 Thiel Center", 
    "Address Line 2": "Apt. 298", 
    "City": "South Fayetteside", 
    "Company Description": "scale seamless e-business", 
    "Company Website": "haley.com", 
    "Phone": "(067)591-1928", 
    "State": "Indiana", 
    "Zipcode": "25740"
  }, 
  "Kunde and Sons": {
    "Address Line 1": "1645 Achsah Cove", 
    "Address Line 2": "Apt. 868", 
    "City": "Schoenchester", 
    "Company Description": "expedite seamless partnerships", 
    "Company Website": "mccullough.com", 
    "Phone": "1-537-304-6170x631", 
    "State": "Alaska", 
    "Zipcode": "48519"
  }, 
  "Ledner Group": {
    "Address Line 1": "9307 Gerhold Run Apt. 136", 
    "Address Line 2": "Apt. 026", 
    "City": "Milliemouth", 
    "Company Description": "orchestrate cross-platform web-readiness", 
    "Company Website": "farrellbeahan.com", 
    "Phone": "(685)776-3936x215", 
    "State": "Virginia", 
    "Zipcode": "20130"
  }, 
  "Ledner-Bernier": {
    "Address Line 1": "979 Zboncak Points Suite 687", 
    "Address Line 2": "Apt. 964", 
    "City": "Stehrstad", 
    "Company Description": "evolve granular communities", 
    "Company Website": "eichmann.info", 
    "Phone": "1-895-611-3011x89080", 
    "State": "Maryland", 
    "Zipcode": "79366"
  }, 
  "Ledner-Hessel": {
    "Address Line 1": "6980 Borer Extensions Suite 940", 
    "Address Line 2": "Apt. 024", 
    "City": "Corwinfort", 
    "Company Description": "disintermediate cross-media methodologies", 
    "Company Website": "gleichner.com", 
    "Phone": "725-850-3465x526", 
    "State": "Nevada", 
    "Zipcode": "34884"
  }, 
  "Leffler Inc": {
    "Address Line 1": "7298 Classie Expressway", 
    "Address Line 2": "Suite 666", 
    "City": "Hilleryview", 
    "Company Description": "engineer front-end deliverables", 
    "Company Website": "turner.com", 
    "Phone": "(854)432-4255", 
    "State": "Colorado", 
    "Zipcode": "00559"
  }, 
  "Lubowitz, Cummings and Schaefer": {
    "Address Line 1": "125 Margie Plaza", 
    "Address Line 2": "Apt. 968", 
    "City": "Edrisfort", 
    "Company Description": "integrate synergistic web services", 
    "Company Website": "powlowski.com", 
    "Phone": "349-907-3534x269", 
    "State": "Michigan", 
    "Zipcode": "13585"
  }, 
  "Macejkovic Ltd": {
    "Address Line 1": "836 Lebsack Forest Apt. 150", 
    "Address Line 2": "Suite 550", 
    "City": "Fredfort", 
    "Company Description": "e-enable frictionless users", 
    "Company Website": "kuvalisdickens.com", 
    "Phone": "1-601-734-0347", 
    "State": "Missouri", 
    "Zipcode": "02370"
  }, 
  "Macejkovic, McGlynn and Skiles": {
    "Address Line 1": "991 Barton Drive Apt. 056", 
    "Address Line 2": "Suite 674", 
    "City": "North Hortonfurt", 
    "Company Description": "harness next-generation communities", 
    "Company Website": "rippin.com", 
    "Phone": "041.836.4866x36510", 
    "State": "Mississippi", 
    "Zipcode": "97854"
  }, 
  "Mills PLC": {
    "Address Line 1": "50776 Ciera Pike", 
    "Address Line 2": "Suite 792", 
    "City": "West Jayceborough", 
    "Company Description": "facilitate back-end e-markets", 
    "Company Website": "dickensmohr.info", 
    "Phone": "08995921173", 
    "State": "NorthDakota", 
    "Zipcode": "69917"
  }, 
  "Mohr, Grady and Bahringer": {
    "Address Line 1": "94366 Hagenes Isle", 
    "Address Line 2": "Apt. 472", 
    "City": "East Cristopherview", 
    "Company Description": "engineer sticky e-services", 
    "Company Website": "daugherty.com", 
    "Phone": "1-627-913-4307", 
    "State": "Alaska", 
    "Zipcode": "87682"
  }, 
  "Mohr-Waelchi": {
    "Address Line 1": "093 Stark Common Suite 707", 
    "Address Line 2": "Apt. 113", 
    "City": "Lake Windy", 
    "Company Description": "optimize virtual technologies", 
    "Company Website": "bode.net", 
    "Phone": "1-966-936-7287", 
    "State": "NewMexico", 
    "Zipcode": "41540"
  }, 
  "Mueller-Bergnaum": {
    "Address Line 1": "927 Emiliano Unions", 
    "Address Line 2": "Suite 854", 
    "City": "Skilesview", 
    "Company Description": "streamline user-centric e-business", 
    "Company Website": "rowe.com", 
    "Phone": "045-845-6545", 
    "State": "Delaware", 
    "Zipcode": "42516"
  }, 
  "Nitzsche Inc": {
    "Address Line 1": "0230 Roselyn Canyon Apt. 517", 
    "Address Line 2": "Apt. 892", 
    "City": "North Jocelyntown", 
    "Company Description": "seize world-class paradigms", 
    "Company Website": "torphy.info", 
    "Phone": "661.652.2262x491", 
    "State": "RhodeIsland", 
    "Zipcode": "21207"
  }, 
  "O'Keefe Ltd": {
    "Address Line 1": "68156 O'Conner Corners Apt. 014", 
    "Address Line 2": "Apt. 955", 
    "City": "Lake Dante", 
    "Company Description": "re-contextualize granular metrics", 
    "Company Website": "flatley.net", 
    "Phone": "833-485-8621", 
    "State": "Connecticut", 
    "Zipcode": "72530"
  }, 
  "Ortiz, Dickinson and Cruickshank": {
    "Address Line 1": "8599 Alonso Locks", 
    "Address Line 2": "Suite 977", 
    "City": "Fritschside", 
    "Company Description": "morph front-end action-items", 
    "Company Website": "hartmann.net", 
    "Phone": "308-321-0102x37490", 
    "State": "SouthCarolina", 
    "Zipcode": "56303"
  }, 
  "Ortiz, Rohan and Gerhold": {
    "Address Line 1": "4331 Marylee Lakes", 
    "Address Line 2": "Suite 661", 
    "City": "East Jacquelineside", 
    "Company Description": "e-enable robust experiences", 
    "Company Website": "harbermorar.org", 
    "Phone": "307-230-7637x205", 
    "State": "Wyoming", 
    "Zipcode": "99447"
  }, 
  "Ortiz-Goldner": {
    "Address Line 1": "246 Meg Dam Suite 093", 
    "Address Line 2": "Apt. 703", 
    "City": "Lake Reagan", 
    "Company Description": "facilitate killer portals", 
    "Company Website": "weissnatmohr.com", 
    "Phone": "+73(4)2906700435", 
    "State": "Utah", 
    "Zipcode": "92670"
  }, 
  "Ortiz-O'Keefe": {
    "Address Line 1": "248 Pagac Cliffs Suite 246", 
    "Address Line 2": "Apt. 292", 
    "City": "Abshireport", 
    "Company Description": "engage efficient deliverables", 
    "Company Website": "okeefe.net", 
    "Phone": "515.005.5400x211", 
    "State": "Kansas", 
    "Zipcode": "60534"
  }, 
  "Osinski, Hermiston and Marvin": {
    "Address Line 1": "993 Yundt Square Apt. 282", 
    "Address Line 2": "Suite 177", 
    "City": "Anitrastad", 
    "Company Description": "leverage granular eyeballs", 
    "Company Website": "schillerlangosh.com", 
    "Phone": "190-673-5723", 
    "State": "NewJersey", 
    "Zipcode": "18089"
  }, 
  "Paucek-Bernier": {
    "Address Line 1": "8633 Dino Point Suite 818", 
    "Address Line 2": "Suite 817", 
    "City": "West Chalmer", 
    "Company Description": "monetize proactive technologies", 
    "Company Website": "wilkinson.com", 
    "Phone": "(771)958-0973x2668", 
    "State": "Arizona", 
    "Zipcode": "76519"
  }, 
  "Pollich LLC": {
    "Address Line 1": "24799 Wolf Fork", 
    "Address Line 2": "Apt. 509", 
    "City": "Merylland", 
    "Company Description": "envisioneer bleeding-edge architectures", 
    "Company Website": "bernier.biz", 
    "Phone": "1-666-804-1715", 
    "State": "NewMexico", 
    "Zipcode": "20524"
  }, 
  "Raynor, Weimann and Konopelski": {
    "Address Line 1": "536 Deyanira Park", 
    "Address Line 2": "Suite 189", 
    "City": "Jammieberg", 
    "Company Description": "synergize distributed e-commerce", 
    "Company Website": "rennerhowell.com", 
    "Phone": "(408)979-1021x7397", 
    "State": "SouthCarolina", 
    "Zipcode": "85136"
  }, 
  "Rippin Inc": {
    "Address Line 1": "4223 Kassulke Hollow Suite 478", 
    "Address Line 2": "Apt. 743", 
    "City": "Chuckchester", 
    "Company Description": "morph cutting-edge experiences", 
    "Company Website": "jerdealtenwerth.com", 
    "Phone": "1-119-055-0184x332", 
    "State": "NewMexico", 
    "Zipcode": "35410"
  }, 
  "Rohan Group": {
    "Address Line 1": "909 Orn Estate Apt. 720", 
    "Address Line 2": "Suite 705", 
    "City": "Gerholdmouth", 
    "Company Description": "transform ubiquitous infrastructures", 
    "Company Website": "ornmoen.org", 
    "Phone": "1-172-738-2718x460", 
    "State": "Oregon", 
    "Zipcode": "62448"
  }, 
  "Ryan and Sons": {
    "Address Line 1": "2489 Kuvalis Pine Suite 331", 
    "Address Line 2": "Apt. 624", 
    "City": "Port Lunaburgh", 
    "Company Description": "facilitate intuitive bandwidth", 
    "Company Website": "skiles.net", 
    "Phone": "193-181-8500", 
    "State": "Connecticut", 
    "Zipcode": "71359"
  }, 
  "Ryan-O'Connell": {
    "Address Line 1": "2922 Mason Lake", 
    "Address Line 2": "Apt. 640", 
    "City": "New Sorenchester", 
    "Company Description": "visualize extensible e-business", 
    "Company Website": "gaylord.com", 
    "Phone": "534-782-9518x43137", 
    "State": "NewMexico", 
    "Zipcode": "68179"
  }, 
  "Schamberger and Sons": {
    "Address Line 1": "8024 Artis Light", 
    "Address Line 2": "Apt. 974", 
    "City": "Lawsonbury", 
    "Company Description": "matrix collaborative initiatives", 
    "Company Website": "cruickshank.com", 
    "Phone": "1-268-310-4524x504", 
    "State": "Nebraska", 
    "Zipcode": "93704"
  }, 
  "Schimmel PLC": {
    "Address Line 1": "2339 Mayert Tunnel Apt. 035", 
    "Address Line 2": "Apt. 583", 
    "City": "Port Olen", 
    "Company Description": "grow vertical metrics", 
    "Company Website": "roberts.com", 
    "Phone": "187.563.6021", 
    "State": "Arkansas", 
    "Zipcode": "15237"
  }, 
  "Schimmel, Bruen and Schamberger": {
    "Address Line 1": "45580 Adams Rest", 
    "Address Line 2": "Suite 364", 
    "City": "Gavinville", 
    "Company Description": "grow revolutionary interfaces", 
    "Company Website": "sawaynmckenzie.com", 
    "Phone": "00439947730", 
    "State": "Colorado", 
    "Zipcode": "43655"
  }, 
  "Schmidt and Sons": {
    "Address Line 1": "8666 Smith Park Apt. 572", 
    "Address Line 2": "Apt. 498", 
    "City": "West Lafayetteshire", 
    "Company Description": "reinvent robust content", 
    "Company Website": "leannon.net", 
    "Phone": "794.091.3608x97031", 
    "State": "Alabama", 
    "Zipcode": "56259"
  }, 
  "Schoen LLC": {
    "Address Line 1": "1202 Green Land Apt. 168", 
    "Address Line 2": "Apt. 819", 
    "City": "Torphychester", 
    "Company Description": "implement efficient vortals", 
    "Company Website": "kertzmann.com", 
    "Phone": "(328)645-4991x0205", 
    "State": "Oregon", 
    "Zipcode": "54379"
  }, 
  "Schowalter-Borer": {
    "Address Line 1": "39240 Star Drives", 
    "Address Line 2": "Apt. 144", 
    "City": "New Butchfurt", 
    "Company Description": "target bleeding-edge info-mediaries", 
    "Company Website": "collinshessel.biz", 
    "Phone": "(888)207-6055", 
    "State": "Alabama", 
    "Zipcode": "69141"
  }, 
  "Schowalter-Cole": {
    "Address Line 1": "4154 Windler Gardens", 
    "Address Line 2": "Apt. 989", 
    "City": "Nicolasfort", 
    "Company Description": "embrace back-end relationships", 
    "Company Website": "weimann.com", 
    "Phone": "01207834883", 
    "State": "Alabama", 
    "Zipcode": "71747"
  }, 
  "Schulist, Rau and Luettgen": {
    "Address Line 1": "955 Gladys Club", 
    "Address Line 2": "Suite 546", 
    "City": "Cassinbury", 
    "Company Description": "maximize virtual interfaces", 
    "Company Website": "gislasonkris.info", 
    "Phone": "249-679-9385x9508", 
    "State": "NewMexico", 
    "Zipcode": "40788"
  }, 
  "Shields, Strosin and Zemlak": {
    "Address Line 1": "3554 Taniyah Parks", 
    "Address Line 2": "Apt. 860", 
    "City": "West Veronica", 
    "Company Description": "expedite extensible communities", 
    "Company Website": "ankunding.info", 
    "Phone": "+46(4)4451552519", 
    "State": "WestVirginia", 
    "Zipcode": "77475"
  }, 
  "Stamm Ltd": {
    "Address Line 1": "6945 McLaughlin Squares", 
    "Address Line 2": "Apt. 318", 
    "City": "Ellarmouth", 
    "Company Description": "empower scalable mindshare", 
    "Company Website": "vandervort.com", 
    "Phone": "(086)296-4650", 
    "State": "RhodeIsland", 
    "Zipcode": "61091"
  }, 
  "Stamm, McDermott and O'Keefe": {
    "Address Line 1": "12603 Yahaira Ports", 
    "Address Line 2": "Apt. 069", 
    "City": "Arlandfort", 
    "Company Description": "synthesize integrated paradigms", 
    "Company Website": "brownstamm.org", 
    "Phone": "(271)017-1886", 
    "State": "Delaware", 
    "Zipcode": "96118"
  }, 
  "Stehr Group": {
    "Address Line 1": "67986 Berton Station Suite 390", 
    "Address Line 2": "Apt. 112", 
    "City": "Lockmanfurt", 
    "Company Description": "benchmark strategic ROI", 
    "Company Website": "simoniscollier.org", 
    "Phone": "09030287407", 
    "State": "Michigan", 
    "Zipcode": "96493"
  }, 
  "Stehr, Beahan and Spencer": {
    "Address Line 1": "604 Irine Via Apt. 032", 
    "Address Line 2": "Suite 096", 
    "City": "South Raetown", 
    "Company Description": "leverage customized eyeballs", 
    "Company Website": "shieldsledner.info", 
    "Phone": "(959)326-7147x005", 
    "State": "Georgia", 
    "Zipcode": "46391"
  }, 
  "Steuber and Sons": {
    "Address Line 1": "744 Kautzer Drives Apt. 658", 
    "Address Line 2": "Suite 005", 
    "City": "Wanitabury", 
    "Company Description": "syndicate back-end solutions", 
    "Company Website": "brakus.com", 
    "Phone": "(609)549-6306", 
    "State": "Maryland", 
    "Zipcode": "63121"
  }, 
  "Steuber-Wisoky": {
    "Address Line 1": "93579 Streich Ports", 
    "Address Line 2": "Suite 555", 
    "City": "Hezekiahville", 
    "Company Description": "envisioneer revolutionary technologies", 
    "Company Website": "ratke.info", 
    "Phone": "(673)507-4050x65914", 
    "State": "Missouri", 
    "Zipcode": "28172"
  }, 
  "Stroman, Dare and Stokes": {
    "Address Line 1": "1907 Mitchell Glens Suite 694", 
    "Address Line 2": "Apt. 848", 
    "City": "Johnsberg", 
    "Company Description": "transform leading-edge ROI", 
    "Company Website": "mullerconn.org", 
    "Phone": "393-805-0884", 
    "State": "Iowa", 
    "Zipcode": "16326"
  }, 
  "Torphy-Larkin": {
    "Address Line 1": "821 Weston Streets Suite 725", 
    "Address Line 2": "Suite 753", 
    "City": "Lake Garrison", 
    "Company Description": "incubate wireless bandwidth", 
    "Company Website": "reynolds.org", 
    "Phone": "418-431-6723x928", 
    "State": "Texas", 
    "Zipcode": "70350"
  }, 
  "Towne, Metz and Hilll": {
    "Address Line 1": "90678 Vera Trail Apt. 541", 
    "Address Line 2": "Suite 028", 
    "City": "Kundehaven", 
    "Company Description": "drive integrated platforms", 
    "Company Website": "aufderhar.biz", 
    "Phone": "1-803-469-1308x884", 
    "State": "SouthDakota", 
    "Zipcode": "57452"
  }, 
  "Trantow-Raynor": {
    "Address Line 1": "86472 Braun Field Suite 587", 
    "Address Line 2": "Suite 259", 
    "City": "North Martha", 
    "Company Description": "cultivate extensible deliverables", 
    "Company Website": "ernser.org", 
    "Phone": "1-985-584-5673", 
    "State": "Nebraska", 
    "Zipcode": "47401"
  }, 
  "Turcotte Inc": {
    "Address Line 1": "1668 Emaline Mission", 
    "Address Line 2": "Apt. 601", 
    "City": "Port Sherree", 
    "Company Description": "drive intuitive initiatives", 
    "Company Website": "stoltenberg.org", 
    "Phone": "282.450.2919x96232", 
    "State": "Wyoming", 
    "Zipcode": "17113"
  }, 
  "VonRueden-Durgan": {
    "Address Line 1": "9900 Lois Estates Suite 841", 
    "Address Line 2": "Apt. 129", 
    "City": "Jerrelfort", 
    "Company Description": "iterate 24/7 e-markets", 
    "Company Website": "feeney.com", 
    "Phone": "(868)833-0651x3176", 
    "State": "NewYork", 
    "Zipcode": "80826"
  }, 
  "Walter, Keeling and Williamson": {
    "Address Line 1": "00311 Mayer Prairie Apt. 566", 
    "Address Line 2": "Apt. 570", 
    "City": "Beerstad", 
    "Company Description": "integrate world-class niches", 
    "Company Website": "gislason.net", 
    "Phone": "1-844-650-1861x9934", 
    "State": "Indiana", 
    "Zipcode": "64692"
  }, 
  "Waters-Kertzmann": {
    "Address Line 1": "381 Upton Villages Suite 550", 
    "Address Line 2": "Suite 828", 
    "City": "Port Roll", 
    "Company Description": "redefine plug-and-play relationships", 
    "Company Website": "marks.com", 
    "Phone": "1-284-282-7779", 
    "State": "Oklahoma", 
    "Zipcode": "87327"
  }, 
  "Weber-Nicolas": {
    "Address Line 1": "664 Lexi Lane", 
    "Address Line 2": "Suite 282", 
    "City": "Lake Clem", 
    "Company Description": "aggregate cutting-edge e-commerce", 
    "Company Website": "kohler.com", 
    "Phone": "(632)431-4008", 
    "State": "Alaska", 
    "Zipcode": "89942"
  }, 
  "West, Reichel and Keebler": {
    "Address Line 1": "954 Howe Harbor Suite 413", 
    "Address Line 2": "Suite 933", 
    "City": "Wittingchester", 
    "Company Description": "productize virtual interfaces", 
    "Company Website": "corkery.net", 
    "Phone": "075-393-9997", 
    "State": "Ohio", 
    "Zipcode": "00661"
  }, 
  "White, Lowe and Predovic": {
    "Address Line 1": "7030 Garett Roads", 
    "Address Line 2": "Suite 556", 
    "City": "Langworthmouth", 
    "Company Description": "optimize distributed eyeballs", 
    "Company Website": "ondricka.com", 
    "Phone": "068.880.4547", 
    "State": "Arizona", 
    "Zipcode": "35321"
  }, 
  "Wilderman Ltd": {
    "Address Line 1": "9228 Wiza Ports Apt. 031", 
    "Address Line 2": "Apt. 266", 
    "City": "Lake Ernestine", 
    "Company Description": "mesh bleeding-edge action-items", 
    "Company Website": "feeney.com", 
    "Phone": "686.433.3227", 
    "State": "SouthCarolina", 
    "Zipcode": "07388"
  }, 
  "Wisoky-Keebler": {
    "Address Line 1": "7209 Rosenbaum Mountain Suite 926", 
    "Address Line 2": "Suite 833", 
    "City": "Port Doreneborough", 
    "Company Description": "scale efficient channels", 
    "Company Website": "howell.com", 
    "Phone": "732-041-4525x9059", 
    "State": "Alaska", 
    "Zipcode": "21614"
  }, 
  "Wisozk Ltd": {
    "Address Line 1": "49944 Schmidt Shore Suite 314", 
    "Address Line 2": "Suite 969", 
    "City": "Nikolausshire", 
    "Company Description": "incubate best-of-breed systems", 
    "Company Website": "reynoldsdavis.net", 
    "Phone": "125.064.3448x989", 
    "State": "Kansas", 
    "Zipcode": "37254"
  }, 
  "Wiza Group": {
    "Address Line 1": "732 Walsh Gardens Suite 606", 
    "Address Line 2": "Apt. 649", 
    "City": "Doyleport", 
    "Company Description": "deploy user-centric architectures", 
    "Company Website": "brekkeokuneva.com", 
    "Phone": "096-594-2783x0910", 
    "State": "Maine", 
    "Zipcode": "85716"
  }
}